{
    "links": {
        "self": "http://www.neowsapp.com/rest/v1/neo/3734185?api_key=iIulBulltgU6a56xZRHN4H3l9WmuAYTsLGpBGhQ2"
    },
    "id": "3734185",
    "neo_reference_id": "3734185",
    "name": "(2015 VG66)",
    "designation": "2015 VG66",
    "nasa_jpl_url": "http://ssd.jpl.nasa.gov/sbdb.cgi?sstr=3734185",
    "absolute_magnitude_h": 23.1,
    "estimated_diameter": {
        "kilometers": {
            "estimated_diameter_min": 0.063760979,
            "estimated_diameter_max": 0.1425738833
        },
        "meters": {
            "estimated_diameter_min": 63.7609789875,
            "estimated_diameter_max": 142.5738833281
        },
        "miles": {
            "estimated_diameter_min": 0.0396192233,
            "estimated_diameter_max": 0.0885912765
        },
        "feet": {
            "estimated_diameter_min": 209.1895703015,
            "estimated_diameter_max": 467.7620993781
        }
    },
    "is_potentially_hazardous_asteroid": false,
    "close_approach_data": [
        {
            "close_approach_date": "2015-11-28",
            "close_approach_date_full": "2015-Nov-28 22:37",
            "epoch_date_close_approach": 1448750220000,
            "relative_velocity": {
                "kilometers_per_second": "18.492263947",
                "kilometers_per_hour": "66572.1502091165",
                "miles_per_hour": "41365.3452229924"
            },
            "miss_distance": {
                "astronomical": "0.0407701278",
                "lunar": "15.8595797142",
                "kilometers": "6099124.278507786",
                "miles": "3789820.0903720068"
            },
            "orbiting_body": "Earth"
        }
    ],
    "orbital_data": {
        "orbit_id": "21",
        "orbit_determination_date": "2017-04-06 08:30:46",
        "first_observation_date": "2015-11-07",
        "last_observation_date": "2015-11-25",
        "data_arc_in_days": 18,
        "observations_used": 145,
        "orbit_uncertainty": "8",
        "minimum_orbit_intersection": ".0201212",
        "jupiter_tisserand_invariant": "3.225",
        "epoch_osculation": "2457339.5",
        "eccentricity": ".7069046027543531",
        "semi_major_axis": "2.270405215714131",
        "inclination": "2.756583736330085",
        "ascending_node_longitude": "197.6700182191688",
        "orbital_period": "1249.549573392792",
        "perihelion_distance": ".665445318608322",
        "perihelion_argument": "304.7947464526615",
        "aphelion_distance": "3.87536511281994",
        "perihelion_time": "2457398.959255202144",
        "mean_anomaly": "342.8695616976189",
        "mean_motion": ".2881038156993834",
        "equinox": "J2000",
        "orbit_class": {
            "orbit_class_type": "APO",
            "orbit_class_description": "Near-Earth asteroid orbits which cross the Earth’s orbit similar to that of 1862 Apollo",
            "orbit_class_range": "a (semi-major axis) > 1.0 AU; q (perihelion) < 1.017 AU"
        }
    },
    "is_sentry_object": false
}